SatCatId,ObjectName,LaunchYear,OrbitalPeriod,LaunchMass,StatusCode,Inclination,Status,UcsData,OrbitClassEstimated,LaunchSiteCountry,Owner,UseType,Purpose,LaunchVehicleClass,TLE1,TLE2,MeanMotion,Eccentricity,OrbitClass
53273,STARLINK-4051,2022,95.44,260.0,+,53.22,Active,1,LEO,USA,USA,Commercial,Communications,Falcon,1 53273U 22086AH  24173.13099263 -.00000422  00000+0 -84253-5 0  9994,2 53273  53.2179 116.8483 0001623 104.5967 255.5205 15.08835277106607,15.08835277,0.0001623,LEO
53274,STARLINK-4050,2022,95.44,260.0,+,53.22,Active,1,LEO,USA,USA,Commercial,Communications,Falcon,1 53274U 22086AJ  24173.07579426 -.00000496  00000+0 -13110-4 0  9996,2 53274  53.2169 117.0978 0001212  85.6406 274.4725 15.08834376106606,15.08834376,0.0001212,LEO
53275,STARLINK-4179,2022,95.44,260.0,+,53.22,Active,1,LEO,USA,USA,Commercial,Communications,Falcon,1 53275U 22086AK  24173.25978981 -.00000332  00000+0 -27487-5 0  9998,2 53275  53.2179 116.2732 0001380  94.8699 265.2451 15.08838458106620,15.08838458,0.000138,LEO
53276,STARLINK-4174,2022,95.44,260.0,+,53.22,Active,1,LEO,USA,USA,Commercial,Communications,Falcon,1 53276U 22086AL  24173.13466610  .00000569  00000+0  53850-4 0  9999,2 53276  53.2164 116.8340 0001277  91.8292 268.2847 15.08836764106605,15.08836764,0.0001277,LEO
53277,STARLINK-4178,2022,95.44,260.0,+,53.22,Active,1,LEO,USA,USA,Commercial,Communications,Falcon,1 53277U 22086AM  24173.11994659 -.00000117  00000+0  10714-4 0  9999,2 53277  53.2173 116.9263 0001505  97.3382 262.7781 15.08846724106609,15.08846724,0.0001505,LEO
53278,STARLINK-4180,2022,95.44,260.0,+,53.22,Active,1,LEO,USA,USA,Commercial,Communications,Falcon,1 53278U 22086AN  24173.25610981  .00000550  00000+0  52628-4 0  9998,2 53278  53.2158 116.2883 0001680  99.9341 260.1841 15.08838082106620,15.08838082,0.000168,LEO
53280,STARLINK-4169,2022,95.44,260.0,+,53.22,Active,1,LEO,USA,USA,Commercial,Communications,Falcon,1 53280U 22086AQ  24173.11117289  .00000705  00000+0  62393-4 0  9991,2 53280  53.2184  71.6155 0001278  88.6750 271.4389 15.08839643107245,15.08839643,0.0001278,LEO
53281,STARLINK-4182,2022,95.44,260.0,+,53.22,Active,1,LEO,USA,USA,Commercial,Communications,Falcon,1 53281U 22086AR  24173.24138734  .00001022  00000+0  82311-4 0  9999,2 53281  53.2163 116.3612 0001235  88.9865 271.1269 15.08841138106628,15.08841138,0.0001235,LEO
53282,STARLINK-4164,2022,95.44,260.0,+,53.22,Active,1,LEO,USA,USA,Commercial,Communications,Falcon,1 53282U 22086AS  24173.24874952 -.00000553  00000+0 -16646-4 0  9997,2 53282  53.2177 116.3201 0001620  94.1307 265.9870 15.08839756106628,15.08839756,0.000162,LEO
53283,STARLINK-4175,2022,95.44,260.0,+,53.22,Active,1,LEO,USA,USA,Commercial,Communications,Falcon,1 53283U 22086AT  24173.23771355 -.00000666  00000+0 -23785-4 0  9997,2 53283  53.2157 116.3697 0001458  96.5444 263.5714 15.08836288106621,15.08836288,0.0001458,LEO
53284,STARLINK-4172,2022,95.44,260.0,+,53.22,Active,1,LEO,USA,USA,Commercial,Communications,Falcon,1 53284U 22086AU  24173.24506288  .00000701  00000+0  62139-4 0  9994,2 53284  53.2161 116.3377 0001424  88.8590 271.2565 15.08846285106629,15.08846285,0.0001424,LEO
53285,STARLINK-4173,2022,95.44,260.0,+,53.22,Active,1,LEO,USA,USA,Commercial,Communications,Falcon,1 53285U 22086AV  24173.22668537 -.00000048  00000+0  15078-4 0  9994,2 53285  53.2177 116.4222 0001341  82.2240 277.8904 15.08837526106611,15.08837526,0.0001341,LEO
53286,STARLINK-4165,2022,95.44,260.0,+,53.22,Active,1,LEO,USA,USA,Commercial,Communications,Falcon,1 53286U 22086AW  24173.27078913 -.00000207  00000+0  50765-5 0  9993,2 53286  53.2176 115.9123 0001387  85.2197 274.8953 15.08843948106468,15.08843948,0.0001387,LEO
53287,STARLINK-4107,2022,95.44,260.0,+,53.22,Active,1,LEO,USA,USA,Commercial,Communications,Falcon,1 53287U 22086AX  24173.28555401  .00000260  00000+0  34409-4 0  9991,2 53287  53.2171 116.1598 0001291  88.1024 272.0116 15.08837296106626,15.08837296,0.0001291,LEO
53288,STARLINK-4162,2022,95.44,260.0,+,53.22,Active,1,LEO,USA,USA,Commercial,Communications,Falcon,1 53288U 22086AY  24173.23035279  .00000314  00000+0  37830-4 0  9994,2 53288  53.2172 116.4051 0001499  76.5233 283.5926 15.08840688106612,15.08840688,0.0001499,LEO
53289,STARLINK-4176,2022,95.44,260.0,+,53.22,Active,1,LEO,USA,USA,Commercial,Communications,Falcon,1 53289U 22086AZ  24173.06339124 -.00000007  00000+0  17642-4 0  9991,2 53289  53.2172 112.2974 0001235  93.8549 266.2585 15.08833386106651,15.08833386,0.0001235,LEO
53290,STARLINK-4149,2022,95.44,260.0,+,53.22,Active,1,LEO,USA,USA,Commercial,Communications,Falcon,1 53290U 22086BA  24173.22299138  .00000625  00000+0  57379-4 0  9997,2 53290  53.2167 116.4404 0001197  89.0450 271.0680 15.08840543106615,15.08840543,0.0001197,LEO
53291,STARLINK-4166,2022,95.44,260.0,+,53.22,Active,1,LEO,USA,USA,Commercial,Communications,Falcon,1 53291U 22086BB  24173.22894176  .00000143  00000+0  27108-4 0  9993,2 53291  53.2182 111.1967 0001760 105.5454 254.5732 15.08841308106684,15.08841308,0.000176,LEO
53292,STARLINK-4159,2022,95.44,260.0,+,53.22,Active,1,LEO,USA,USA,Commercial,Communications,Falcon,1 53292U 22086BC  24173.23405872 -.00000039  00000+0  15627-4 0  9994,2 53292  53.2180 116.5679 0001521  74.9772 285.1389 15.08833847106619,15.08833847,0.0001521,LEO
53293,STARLINK-4148,2022,95.44,260.0,+,53.22,Active,1,LEO,USA,USA,Commercial,Communications,Falcon,1 53293U 22086BD  24173.12087606 -.00000220  00000+0  42851-5 0  9996,2 53293  53.2187 106.8960 0001578 122.1689 237.9456 15.08830633106730,15.08830633,0.0001578,LEO
53294,STARLINK-4146,2022,95.44,260.0,+,53.22,Active,1,LEO,USA,USA,Commercial,Communications,Falcon,1 53294U 22086BE  24173.20549088  .00000941  00000+0  77182-4 0  9996,2 53294  53.2175 106.3539 0001315  84.1960 275.9182 15.08841059106791,15.08841059,0.0001315,LEO
53299,OBJECT A,2022,93.2,-1.0,+,97.33,Active,0,LEO,PRC,China,Unknown,Unknown,Unknown,1 53299U 22087A   24173.81592704  .00026460  00000+0  55867-3 0  9991,2 53299  97.3289 252.1885 0006506 337.6763  22.4202 15.45152597106352,15.45152597,0.0006506,LEO
53300,LZWN (JINAN 1),2022,93.44,-1.0,+,97.33,Active,0,LEO,PRC,China,Unknown,Unknown,Unknown,1 53300U 22087B   24173.87937644  .00019195  00000+0  46321-3 0  9998,2 53300  97.3278 251.1739 0008436 349.5860  10.5210 15.41210318106308,15.41210318,0.0008436,LEO
53301,OBJECT C,2022,93.49,-1.0,+,97.33,Active,0,LEO,PRC,China,Unknown,Unknown,Unknown,1 53301U 22087C   24173.86134975  .00017261  00000+0  42974-3 0  9996,2 53301  97.3281 250.8822 0009459 349.2350  10.8692 15.40275825106286,15.40275825,0.0009459,LEO
53303,OBJECT E,2022,93.01,-1.0,+,97.34,Active,0,LEO,PRC,China,Unknown,Unknown,Unknown,1 53303U 22087E   24173.83682773  .00030797  00000+0  58251-3 0  9993,2 53303  97.3372 253.9991 0007052 346.0607  14.0447 15.48323096106452,15.48323096,0.0007052,LEO
53316,YAOGAN-35 03A,2022,94.04,300.0,+,35.0,Active,1,LEO,PRC,China,Military,Earth Observation,Long March,1 53316U 22088A   24173.87303804  .00025190  00000+0  80928-3 0  9994,2 53316  34.9980  74.7940 0009662  45.9506 314.2006 15.31307698105865,15.31307698,0.0009662,LEO
53318,YAOGAN-35 03B,2022,94.57,300.0,+,34.99,Active,1,LEO,PRC,China,Military,Earth Observation,Long March,1 53318U 22088C   24173.85812584  .00011968  00000+0  50136-3 0  9990,2 53318  34.9932  80.2553 0000108 356.9089   3.1625 15.22743292105802,15.22743292,1.08e-05,LEO
53320,YAOGAN-35 03C,2022,94.57,-1.0,+,34.99,Active,0,LEO,PRC,China,Unknown,Unknown,Long March,1 53320U 22088E   24173.85467293  .00015853  00000+0  66296-3 0  9997,2 53320  34.9943  80.2883 0005276 254.0103 106.0030 15.22745362105802,15.22745362,0.0005276,LEO
53323,COSMOS 2558,2022,93.87,-1.0,+,97.25,Active,0,LEO,Russia,Russia/USSR,Unknown,Unknown,Unknown,1 53323U 22089A   24173.67794092  .00019195  00000+0  58252-3 0  9997,2 53323  97.2453 271.0656 0005989 140.2016 219.9667 15.34122499105927,15.34122499,0.0005989,LEO
53346,TECMS,2022,94.68,-1.0,+,97.4,Active,0,LEO,PRC,China,Unknown,Unknown,Unknown,1 53346U 22090A   24173.84113426  .00005327  00000+0  24393-3 0  9990,2 53346  97.3981 247.6938 0004333  88.1517 272.0215 15.20908871104546,15.20908871,0.0004333,LEO
53355,SBIRS GEO-6 (USA 336),2022,1436.1,4850.0,+,4.57,Active,1,GSO,USA,USA,Military,Earth Observation,Atlas,1 53355U 22092A   24173.86684797 -.00000270  00000+0  00000+0 0  9996,2 53355   4.5644 311.1805 0003067 124.5904 285.8497  1.00271198  6958,1.00271198,0.0003067,GSO
53369,OBJECT C,2022,92.99,-1.0,+,97.34,Active,0,LEO,PRC,China,Unknown,Unknown,Unknown,1 53369U 22095C   24173.85032989  .00028972  00000+0  51760-3 0  9994,2 53369  97.3367 256.1891 0049354 156.8082 203.5412 15.48602979104621,15.48602979,0.0049354,LEO
53370,KHAYYAM,2022,94.43,650.0,+,97.39,Active,1,LEO,Kazakhstan,Iran,Military,Earth Observation,Soyuz,1 53370U 22096A   24173.82006259  .00000851  00000+0  37201-4 0  9996,2 53370  97.3919  78.5539 0002550  77.7710 282.3813 15.24762203104033,15.24762203,0.000255,LEO
53371,OBJECT B,2022,92.35,5.0,+,97.39,Active,1,LEO,Kazakhstan,Russia/USSR,Civil,Technology Development,Soyuz,1 53371U 22096B   24173.81897099  .00054342  00000+0  68369-3 0  9998,2 53371  97.3911  89.9362 0003082 111.4776 248.6810 15.59492157104785,15.59492157,0.0003082,LEO
53372,OBJECT C,2022,92.47,5.0,+,97.39,Active,1,LEO,Kazakhstan,Russia/USSR,Civil,Technology Development,Soyuz,1 53372U 22096C   24173.84854871  .00048944  00000+0  66522-3 0  9993,2 53372  97.3883  89.3562 0002504 106.9697 253.1833 15.57455626104738,15.57455626,0.0002504,LEO
53378,KAI-1 (RS26S),2022,91.6,-1.0,+,97.4,Active,0,LEO,Kazakhstan,Russia/USSR,Unknown,Unknown,Unknown,1 53378U 22096J   24173.71716751  .00117107  00000+0  87391-3 0  9994,2 53378  97.3956  92.9166 0005004 120.0622 240.1139 15.72369289104942,15.72369289,0.0005004,LEO
